HST                     
1 20580U 90037B   26094.64776769  .00011124  00000+0  36493-3 0  9993
2 20580  28.4724 222.8665 0002193  61.0619 299.0197 15.29923140777298
POLAR                   
1 23802U 96013A   26094.09552595  .00000097  00000+0  00000+0 0  9999
2 23802  79.7819 227.9051 6395568 211.6054  85.4938  1.29845741143898
SWAS                    
1 25560U 98071A   26095.18283227  .00005745  00000+0  36771-3 0  9995
2 25560  69.8972  55.7081 0006215 333.5866  26.4980 15.09109546486259
CXO                     
1 25867U 99040B   26097.97432086  .00000867  00000+0  00000+0 0  9992
2 25867  55.0160 118.7491 7949849 310.6166   0.0374  0.37800700 17053
XMM-NEWTON              
1 25989U 99066A   26095.54798203  .00000069  00000+0  00000+0 0  9996
2 25989  64.8516 283.9204 4698499  66.1986   0.0494  0.50130994 22640
TERRA                   
1 25994U 99068A   26095.21172110  .00000683  00000+0  14810-3 0  9991
2 25994  97.9537 147.6258 0003671  97.2018 284.2865 14.61045304398955
CLUSTER II-FM7 (SAMBA)  
1 26410U 00041A   26090.03773165  .00002444  00000+0  00000+0 0  9999
2 26410 149.3581  38.1493 8953066 254.4502   0.4223  0.44796982 19968
CLUSTER II-FM8 (TANGO)  
1 26464U 00045B   26094.11120259  .00003194  00000+0  00000+0 0  9998
2 26464 149.6837  39.5667 8962149 255.7736   0.6086  0.44400104 19975
ODIN                    
1 26702U 01007A   26095.09149750  .00055381  00000+0  64738-3 0  9994
2 26702  97.4010 132.2634 0004474  86.1520 274.0249 15.61412754377957
TIMED                   
1 26998U 01055B   26095.21126513  .00002666  00000+0  24655-3 0  9992
2 26998  74.0712  21.9362 0002571 241.1472 118.9454 14.95122308319916
CORIOLIS                
1 27640U 03001A   26095.26544824  .00000185  00000+0  10754-3 0  9993
2 27640  98.7157 103.2574 0015059  65.2085 295.0656 14.19923741203870
SORCE                   
1 27651U 03004A   26095.07438172  .00004673  00000+0  34791-3 0  9998
2 27651  39.9916 318.6852 0018504 249.2440 110.6371 15.03314846260895
MOST                    
1 27843U 03031D   26094.99832572  .00000110  00000+0  70361-4 0  9999
2 27843  98.7077 103.7387 0010972 102.6225 257.6180 14.21306928180318
SCISAT 1                
1 27858U 03036A   26095.02149605  .00000974  00000+0  12920-3 0  9997
2 27858  73.9300 316.7079 0006442  29.2306 330.9229 14.81363220220614
SWIFT                   
1 28485U 04047A   26095.13807531  .00059894  00000+0  64554-3 0  9993
2 28485  20.5547  25.5513 0002920   6.6606 353.3877 15.61915789175405
HINODE (SOLAR-B)        
1 29479U 06041A   26095.28163369  .00001025  00000+0  18477-3 0  9999
2 29479  98.0602 112.4988 0018106 155.3029 204.9047 14.68520645 44175
SHIJIAN-6 02A (SJ-6 02A)
1 29505U 06046A   26095.24708130  .00010727  00000+0  55949-3 0  9995
2 29505  97.6444 135.7826 0004105  53.7482 306.4129 15.16130793 61219
