[{"OBJECT_NAME":"HST","OBJECT_ID":"1990-037B","EPOCH":"2026-04-04T15:32:47.128416","MEAN_MOTION":15.2992314,"ECCENTRICITY":0.0002193,"INCLINATION":28.4724,"RA_OF_ASC_NODE":222.8665,"ARG_OF_PERICENTER":61.0619,"MEAN_ANOMALY":299.0197,"EPHEMERIS_TYPE":0,"CLASSIFICATION_TYPE":"U","NORAD_CAT_ID":20580,"ELEMENT_SET_NO":999,"REV_AT_EPOCH":77729,"BSTAR":0.00036493,"MEAN_MOTION_DOT":0.00011124,"MEAN_MOTION_DDOT":0},{"OBJECT_NAME":"POLAR","OBJECT_ID":"1996-013A","EPOCH":"2026-04-04T02:17:33.442080","MEAN_MOTION":1.29845741,"ECCENTRICITY":0.63955685,"INCLINATION":79.7819,"RA_OF_ASC_NODE":227.9051,"ARG_OF_PERICENTER":211.6054,"MEAN_ANOMALY":85.4938,"EPHEMERIS_TYPE":0,"CLASSIFICATION_TYPE":"U","NORAD_CAT_ID":23802,"ELEMENT_SET_NO":999,"REV_AT_EPOCH":14389,"BSTAR":0,"MEAN_MOTION_DOT":9.7e-7,"MEAN_MOTION_DDOT":0},{"OBJECT_NAME":"SWAS","OBJECT_ID":"1998-071A","EPOCH":"2026-04-05T04:23:16.708128","MEAN_MOTION":15.09109546,"ECCENTRICITY":0.00062151,"INCLINATION":69.8972,"RA_OF_ASC_NODE":55.7081,"ARG_OF_PERICENTER":333.5866,"MEAN_ANOMALY":26.498,"EPHEMERIS_TYPE":0,"CLASSIFICATION_TYPE":"U","NORAD_CAT_ID":25560,"ELEMENT_SET_NO":999,"REV_AT_EPOCH":48625,"BSTAR":0.000367706,"MEAN_MOTION_DOT":5.745e-5,"MEAN_MOTION_DDOT":0},{"OBJECT_NAME":"CXO","OBJECT_ID":"1999-040B","EPOCH":"2026-04-07T23:23:01.322304","MEAN_MOTION":0.378007,"ECCENTRICITY":0.79498493,"INCLINATION":55.016,"RA_OF_ASC_NODE":118.7491,"ARG_OF_PERICENTER":310.6166,"MEAN_ANOMALY":0.0374,"EPHEMERIS_TYPE":0,"CLASSIFICATION_TYPE":"U","NORAD_CAT_ID":25867,"ELEMENT_SET_NO":999,"REV_AT_EPOCH":1705,"BSTAR":0,"MEAN_MOTION_DOT":8.67e-6,"MEAN_MOTION_DDOT":0},{"OBJECT_NAME":"XMM-NEWTON","OBJECT_ID":"1999-066A","EPOCH":"2026-04-05T13:09:05.647392","MEAN_MOTION":0.50130994,"ECCENTRICITY":0.4698499,"INCLINATION":64.8516,"RA_OF_ASC_NODE":283.9204,"ARG_OF_PERICENTER":66.1986,"MEAN_ANOMALY":0.0494,"EPHEMERIS_TYPE":0,"CLASSIFICATION_TYPE":"U","NORAD_CAT_ID":25989,"ELEMENT_SET_NO":999,"REV_AT_EPOCH":2264,"BSTAR":0,"MEAN_MOTION_DOT":6.9e-7,"MEAN_MOTION_DDOT":0},{"OBJECT_NAME":"TERRA","OBJECT_ID":"1999-068A","EPOCH":"2026-04-05T05:04:52.703040","MEAN_MOTION":14.61045304,"ECCENTRICITY":0.00036711,"INCLINATION":97.9537,"RA_OF_ASC_NODE":147.6258,"ARG_OF_PERICENTER":97.2018,"MEAN_ANOMALY":284.2865,"EPHEMERIS_TYPE":0,"CLASSIFICATION_TYPE":"U","NORAD_CAT_ID":25994,"ELEMENT_SET_NO":999,"REV_AT_EPOCH":39895,"BSTAR":0.00014809783,"MEAN_MOTION_DOT":6.83e-6,"MEAN_MOTION_DDOT":0},{"OBJECT_NAME":"CLUSTER II-FM7 (SAMBA)","OBJECT_ID":"2000-041A","EPOCH":"2026-03-31T00:54:20.014560","MEAN_MOTION":0.44796982,"ECCENTRICITY":0.89530667,"INCLINATION":149.3581,"RA_OF_ASC_NODE":38.1493,"ARG_OF_PERICENTER":254.4502,"MEAN_ANOMALY":0.4223,"EPHEMERIS_TYPE":0,"CLASSIFICATION_TYPE":"U","NORAD_CAT_ID":26410,"ELEMENT_SET_NO":999,"REV_AT_EPOCH":1996,"BSTAR":0,"MEAN_MOTION_DOT":2.444e-5,"MEAN_MOTION_DDOT":0},{"OBJECT_NAME":"CLUSTER II-FM8 (TANGO)","OBJECT_ID":"2000-045B","EPOCH":"2026-04-04T02:40:07.903776","MEAN_MOTION":0.44400104,"ECCENTRICITY":0.89621495,"INCLINATION":149.6837,"RA_OF_ASC_NODE":39.5667,"ARG_OF_PERICENTER":255.7736,"MEAN_ANOMALY":0.6086,"EPHEMERIS_TYPE":0,"CLASSIFICATION_TYPE":"U","NORAD_CAT_ID":26464,"ELEMENT_SET_NO":999,"REV_AT_EPOCH":1997,"BSTAR":0,"MEAN_MOTION_DOT":3.194e-5,"MEAN_MOTION_DDOT":0},{"OBJECT_NAME":"ODIN","OBJECT_ID":"2001-007A","EPOCH":"2026-04-05T02:11:45.384000","MEAN_MOTION":15.61412754,"ECCENTRICITY":0.0004474,"INCLINATION":97.401,"RA_OF_ASC_NODE":132.2634,"ARG_OF_PERICENTER":86.152,"MEAN_ANOMALY":274.0249,"EPHEMERIS_TYPE":0,"CLASSIFICATION_TYPE":"U","NORAD_CAT_ID":26702,"ELEMENT_SET_NO":999,"REV_AT_EPOCH":37795,"BSTAR":0.00064738309,"MEAN_MOTION_DOT":0.00055381,"MEAN_MOTION_DDOT":0},{"OBJECT_NAME":"TIMED","OBJECT_ID":"2001-055B","EPOCH":"2026-04-05T05:04:13.307232","MEAN_MOTION":14.95122308,"ECCENTRICITY":0.00025718,"INCLINATION":74.0712,"RA_OF_ASC_NODE":21.9362,"ARG_OF_PERICENTER":241.1472,"MEAN_ANOMALY":118.9454,"EPHEMERIS_TYPE":0,"CLASSIFICATION_TYPE":"U","NORAD_CAT_ID":26998,"ELEMENT_SET_NO":999,"REV_AT_EPOCH":31991,"BSTAR":0.00024654811,"MEAN_MOTION_DOT":2.666e-5,"MEAN_MOTION_DDOT":0},{"OBJECT_NAME":"CORIOLIS","OBJECT_ID":"2003-001A","EPOCH":"2026-04-05T06:22:14.727936","MEAN_MOTION":14.19923741,"ECCENTRICITY":0.00150599,"INCLINATION":98.7157,"RA_OF_ASC_NODE":103.2574,"ARG_OF_PERICENTER":65.2085,"MEAN_ANOMALY":295.0656,"EPHEMERIS_TYPE":0,"CLASSIFICATION_TYPE":"U","NORAD_CAT_ID":27640,"ELEMENT_SET_NO":999,"REV_AT_EPOCH":20387,"BSTAR":0.00010753524,"MEAN_MOTION_DOT":1.85e-6,"MEAN_MOTION_DDOT":0},{"OBJECT_NAME":"SORCE","OBJECT_ID":"2003-004A","EPOCH":"2026-04-05T01:47:06.580608","MEAN_MOTION":15.03314846,"ECCENTRICITY":0.00185048,"INCLINATION":39.9916,"RA_OF_ASC_NODE":318.6852,"ARG_OF_PERICENTER":249.244,"MEAN_ANOMALY":110.6371,"EPHEMERIS_TYPE":0,"CLASSIFICATION_TYPE":"U","NORAD_CAT_ID":27651,"ELEMENT_SET_NO":999,"REV_AT_EPOCH":26089,"BSTAR":0.00034790955,"MEAN_MOTION_DOT":4.673e-5,"MEAN_MOTION_DDOT":0},{"OBJECT_NAME":"MOST","OBJECT_ID":"2003-031D","EPOCH":"2026-04-04T23:57:35.342208","MEAN_MOTION":14.21306928,"ECCENTRICITY":0.00109723,"INCLINATION":98.7077,"RA_OF_ASC_NODE":103.7387,"ARG_OF_PERICENTER":102.6225,"MEAN_ANOMALY":257.618,"EPHEMERIS_TYPE":0,"CLASSIFICATION_TYPE":"U","NORAD_CAT_ID":27843,"ELEMENT_SET_NO":999,"REV_AT_EPOCH":18031,"BSTAR":7.0360592e-5,"MEAN_MOTION_DOT":1.1e-6,"MEAN_MOTION_DDOT":0},{"OBJECT_NAME":"SCISAT 1","OBJECT_ID":"2003-036A","EPOCH":"2026-04-05T00:30:57.258720","MEAN_MOTION":14.8136322,"ECCENTRICITY":0.00064427,"INCLINATION":73.93,"RA_OF_ASC_NODE":316.7079,"ARG_OF_PERICENTER":29.2306,"MEAN_ANOMALY":330.9229,"EPHEMERIS_TYPE":0,"CLASSIFICATION_TYPE":"U","NORAD_CAT_ID":27858,"ELEMENT_SET_NO":999,"REV_AT_EPOCH":22061,"BSTAR":0.00012920079,"MEAN_MOTION_DOT":9.74e-6,"MEAN_MOTION_DDOT":0},{"OBJECT_NAME":"SWIFT","OBJECT_ID":"2004-047A","EPOCH":"2026-04-05T03:18:49.706784","MEAN_MOTION":15.61915789,"ECCENTRICITY":0.00029207,"INCLINATION":20.5547,"RA_OF_ASC_NODE":25.5513,"ARG_OF_PERICENTER":6.6606,"MEAN_ANOMALY":353.3877,"EPHEMERIS_TYPE":0,"CLASSIFICATION_TYPE":"U","NORAD_CAT_ID":28485,"ELEMENT_SET_NO":999,"REV_AT_EPOCH":17540,"BSTAR":0.00064553533,"MEAN_MOTION_DOT":0.00059894,"MEAN_MOTION_DDOT":0},{"OBJECT_NAME":"HINODE (SOLAR-B)","OBJECT_ID":"2006-041A","EPOCH":"2026-04-05T06:45:33.150816","MEAN_MOTION":14.68520645,"ECCENTRICITY":0.00181065,"INCLINATION":98.0602,"RA_OF_ASC_NODE":112.4988,"ARG_OF_PERICENTER":155.3029,"MEAN_ANOMALY":204.9047,"EPHEMERIS_TYPE":0,"CLASSIFICATION_TYPE":"U","NORAD_CAT_ID":29479,"ELEMENT_SET_NO":999,"REV_AT_EPOCH":4417,"BSTAR":0.00018477368,"MEAN_MOTION_DOT":1.025e-5,"MEAN_MOTION_DDOT":0},{"OBJECT_NAME":"SHIJIAN-6 02A (SJ-6 02A)","OBJECT_ID":"2006-046A","EPOCH":"2026-04-05T05:55:47.824320","MEAN_MOTION":15.16130793,"ECCENTRICITY":0.00041053,"INCLINATION":97.6444,"RA_OF_ASC_NODE":135.7826,"ARG_OF_PERICENTER":53.7482,"MEAN_ANOMALY":306.4129,"EPHEMERIS_TYPE":0,"CLASSIFICATION_TYPE":"U","NORAD_CAT_ID":29505,"ELEMENT_SET_NO":999,"REV_AT_EPOCH":6121,"BSTAR":0.00055948581,"MEAN_MOTION_DOT":0.00010727,"MEAN_MOTION_DDOT":0}]
